[
    {
        "Altitude(m)": 612513.901571905,
        "Argument of Periapsis(deg)": 0.0,
        "Eccentricity": 0.0,
        "Inclination(deg)": 60.0,
        "Latitude(deg)": -28.13586606931396,
        "Longitude(deg)": 132.9130838731105,
        "Mean Anomaly(deg)": 212.7273,
        "RAAN(deg)": 35.0,
        "Satellite Name": "Test1 167",
        "Satellite Number": 167,
        "Semi-Major Axis(m)": 6980739.136638005,
        "Time(s)": 0
    },
    {
        "Altitude(m)": 612708.2693069568,
        "Argument of Periapsis(deg)": 0.00010418945913296404,
        "Eccentricity": 0.0,
        "Inclination(deg)": 60.0,
        "Latitude(deg)": -28.64760560418038,
        "Longitude(deg)": 133.27031325300266,
        "Mean Anomaly(deg)": 213.34740614546186,
        "RAAN(deg)": 34.99957995086025,
        "Satellite Name": "Test1 167",
        "Satellite Number": 167,
        "Semi-Major Axis(m)": 6980739.136638005,
        "Time(s)": 10
    }
]